INTELSAT 902 (IS-902)   
1 26900U 01039A   26169.17198513 -.00000292  00000+0  00000+0 0  9991
2 26900   6.1195  71.7720 0004327  11.9717 194.4869  1.00271695 90705
INTELSAT 904 (IS-904)   
1 27380U 02007A   26169.03313194 -.00000235  00000+0  00000+0 0  9996
2 27380   6.9229  69.1748 0006517   5.8334 171.6981  1.00270375 51775
DIRECTV 5 (TEMPO 1)     
1 27426U 02023A   26168.87503751 -.00000065  00000+0  00000+0 0  9997
2 27426   4.8803  75.3025 0003354  25.8416   9.8887  1.00271773 88137
INTELSAT 905 (IS-905)   
1 27438U 02027A   26169.30741014  .00000085  00000+0  00000+0 0  9990
2 27438   6.7572  69.7876 0003863  22.1134 148.0943  1.00271879 51379
GALAXY 3C (G-3C)        
1 27445U 02030A   26168.59285479 -.00000159  00000+0  00000+0 0  9993
2 27445   3.7335  77.9723 0001580  30.9364 275.5108  1.00270957 46491
INTELSAT 906 (IS-906)   
1 27513U 02041A   26169.16136488  .00000004  00000+0  00000+0 0  9998
2 27513   5.8049  72.9104 0004566   8.2646 307.4743  1.00273159 87030
GALAXY 13 (HORIZONS-1)  
1 27954U 03044A   26169.29486020  .00000126  00000+0  00000+0 0  9990
2 27954   1.4219  83.8513 0002239 354.8417 143.9791  1.00271523 46580
INTELSAT 10-02          
1 28358U 04022A   26169.03919865 -.00000017  00000+0  00000+0 0  9996
2 28358   0.0155 308.1987 0000196 214.1662 117.0220  1.00272105 80563
DIRECTV 8               
1 28659U 05019A   26168.94453483  .00000000  00000+0  00000+0 0  9996
2 28659   0.0195   6.4057 0002933  88.2600  32.5140  1.00271002 77080
GALAXY 28 (G-28)        
1 28702U 05022A   26169.17657848 -.00000207  00000+0  00000+0 0  9996
2 28702   3.3009  78.9229 0002852   7.5492 216.4392  1.00271173 51989
GALAXY 16 (G-16)        
1 29236U 06023A   26169.28849169 -.00000133  00000+0  00000+0 0  9990
2 29236   0.0085  90.7871 0002506 353.0631 187.5328  1.00271507 72986
DIRECTV 9S              
1 29494U 06043A   26169.23322850 -.00000120  00000+0  00000+0 0  9992
2 29494   2.4244  80.8904 0004952  13.3613 154.9886  1.00270942 51396
GALAXY 17 (G-17)        
1 31307U 07016B   26169.16513844 -.00000213  00000+0  00000+0 0  9999
2 31307   2.9755  79.8884 0004636  18.2137 142.7427  1.00271746 69818
INTELSAT 11 (IS-11)     
1 32253U 07044B   26169.27721817 -.00000224  00000+0  00000+0 0  9996
2 32253   3.5691  78.6561 0002405  89.4126 319.3263  0.99050334 68469
HORIZONS-2              
1 32388U 07063B   26169.16739177 -.00000260  00000+0  00000+0 0  9992
2 32388   2.6055  80.6145 0003798   3.2738 168.9591  1.00268220 67821
DIRECTV 11              
1 32729U 08013A   26168.59198813 -.00000130  00000+0  00000+0 0  9995
2 32729   0.0106 249.6020 0000252 114.3635  15.8127  1.00268228 45593
GALAXY 18 (G-18)        
1 32951U 08024A   26169.01501186  .00000019  00000+0  00000+0 0  9998
2 32951   0.0131  52.1091 0002755  35.6237  60.9364  1.00272649 45862
INTELSAT 25 (IS-25)     
1 33153U 08034A   26169.27635150 -.00000196  00000+0  00000+0 0  9998
2 33153   2.7136  80.3596 0003406  60.7324 341.7156  0.99034293 65706
GALAXY 19 (G-19)        
1 33376U 08045A   26169.16279843 -.00000145  00000+0  00000+0 0  9992
2 33376   0.0337 263.6227 0002495 187.6880 136.7065  1.00271198 64910
FM-5                    
1 35493U 09034A   26169.09362002 -.00000206  00000+0  00000+0 0  9993
2 35493   0.0166 299.1113 0000853  10.2562 264.5070  1.00269241 46657
INTELSAT 14 (IS-14)     
1 36097U 09064A   26169.17302513 -.00000279  00000+0  00000+0 0  9997
2 36097   0.0134 307.6173 0002302 136.3334 199.7596  1.00272898 60618
INTELSAT 15 (IS-15)     
1 36106U 09067A   26168.91369505 -.00000190  00000+0  00000+0 0  9998
2 36106   0.0144 330.2034 0002084 120.0474 229.9779  1.00270234 41238
DIRECTV 12              
1 36131U 09075A   26168.66260758 -.00000108  00000+0  00000+0 0  9996
2 36131   0.0147 116.8023 0000258 315.2518 329.6722  1.00267604 46556
INTELSAT 16 (IS-16)     
1 36397U 10006A   26169.28559616 -.00000251  00000+0  00000+0 0  9998
2 36397   0.0114 323.6206 0001914 137.5235 191.9878  1.00272532 59660
XM-5                    
1 37185U 10053A   26168.87391083 -.00000028  00000+0  00000+0 0  9994
2 37185   0.0616 273.1762 0002892 287.5831 264.7647  1.00270093 57495
INTELSAT 17 (IS-17)     
1 37238U 10065B   26169.20649959 -.00000007  00000+0  00000+0 0  9999
2 37238   0.0051 207.6251 0002634 255.7028 303.4570  1.00271821 53257
INTELSAT 28 (IS-28)     
1 37392U 11016A   26169.17571182 -.00000232  00000+0  00000+0 0  9995
2 37392   1.8097  82.6045 0003588   5.3764 209.9749  1.00271708 53290
INTELSAT 18 (IS-18)     
1 37834U 11056A   26169.14629785  .00000047  00000+0  00000+0 0  9993
2 37834   0.0293 279.0413 0001683 167.0609  52.9469  1.00270956 53827
INTELSAT 22 (IS-22)     
1 38098U 12011A   26169.19955740 -.00000065  00000+0  00000+0 0  9997
2 38098   0.0136  40.5346 0001542  50.9627 318.8865  1.00272352  7191
INTELSAT 19 (IS-19)     
1 38356U 12030A   26169.28614487 -.00000063  00000+0  00000+0 0  9993
2 38356   0.0171   2.1853 0002914  93.0025  80.3435  1.00271341 50467
INTELSAT 20 (IS-20)     
1 38740U 12043A   26169.20302701 -.00000030  00000+0  00000+0 0  9993
2 38740   0.0039  33.2815 0001311 149.2403 225.5222  1.00269550 50752
